KINEIS-1B               
1 60079U 24114A   26189.54223549  .00000508  00000+0  72974-4 0  9999
2 60079  97.9826 213.6257 0003396  52.9274 307.2248 14.80659868110565
KINEIS-1C               
1 60081U 24114C   26189.50829730  .00000515  00000+0  73859-4 0  9993
2 60081  97.9841 213.4457 0002512 103.2670 256.8822 14.80661978110533
KINEIS-1D               
1 60082U 24114D   26189.52903265  .00000423  00000+0  68240-4 0  9998
2 60082  97.9882 209.4312 0002848 108.4071 251.7448 14.76356672110274
KINEIS-1E               
1 60083U 24114E   26189.52622147  .00000719  00000+0  10024-3 0  9990
2 60083  97.8942 212.6068 0003886 123.4709 236.6875 14.80686146110546
KINEIS-1A               
1 60084U 24114F   26189.49203514  .00000571  00000+0  81053-4 0  9997
2 60084  97.8916 212.6692 0005636  78.3876 281.7969 14.80675189110549
KINEIS-3C               
1 61220U 24172A   26189.48038581  .00001155  00000+0  19030-3 0  9997
2 61220  98.0430 279.1542 0002782  93.3001 266.8525 14.72357558 96200
KINEIS-3D               
1 61221U 24172B   26189.20181037  .00001132  00000+0  18667-3 0  9993
2 61221  98.0426 278.8886 0002620  92.8272 267.3235 14.72358534 96443
KINEIS-3E               
1 61222U 24172C   26189.52461954  .00001448  00000+0  23689-3 0  9998
2 61222  98.0428 279.1895 0001864  92.8254 267.3166 14.72325617 96493
KINEIS-3A               
1 61223U 24172D   26189.50806115  .00001453  00000+0  23776-3 0  9992
2 61223  98.0424 279.2715 0002628  55.4863 304.6592 14.72295413 95916
KINEIS-3B               
1 61224U 24172E   26189.49062470  .00001399  00000+0  22930-3 0  9999
2 61224  98.0418 279.2773 0002125  43.1636 316.9737 14.72281513 96484
KINEIS-5C               
1 62081U 24219A   26189.46791380  .00000465  00000+0  81254-4 0  9997
2 62081  97.9060 347.7311 0003602 194.4770 165.6335 14.72308791 86880
KINEIS-5D               
1 62082U 24219B   26189.49523963  .00000640  00000+0  10848-3 0  9996
2 62082  97.9172 347.8146 0004728 188.0824 172.0309 14.72485182 86895
KINEIS-5E               
1 62083U 24219C   26189.51218477  .00000435  00000+0  76444-4 0  9998
2 62083  97.9017 347.8722 0006221 185.0964 175.0181 14.72293773 86902
KINEIS-5A               
1 62084U 24219D   26189.01439524  .00000915  00000+0  15252-3 0  9994
2 62084  97.8958 347.6737 0003241 227.0269 133.0667 14.72255877 86832
KINEIS-5B               
1 62085U 24219E   26189.50340087  .00000737  00000+0  10840-3 0  9994
2 62085  98.0083 353.2162 0002021 159.2704 200.8589 14.78375778 87156
KINEIS-2C               
1 62929U 25028B   26189.10176095  .00001141  00000+0  18378-3 0  9996
2 62929  98.1233 243.5178 0003660 178.9699 181.1516 14.73414784 75693
