{"fetched_at":"2026-07-08T17:59:53.497Z","source":"https://celestrak.org/NORAD/elements/gp.php?NAME=KINEIS&FORMAT=JSON","constellation":"kineis","records":[{"OBJECT_NAME":"KINEIS-1B","OBJECT_ID":"2024-114A","EPOCH":"2026-07-08T13:00:49.146336","CLASSIFICATION_TYPE":"U","MEAN_MOTION":14.80659868,"ECCENTRICITY":0.0003396,"INCLINATION":97.9826,"RA_OF_ASC_NODE":213.6257,"ARG_OF_PERICENTER":52.9274,"MEAN_ANOMALY":307.2248,"EPHEMERIS_TYPE":0,"NORAD_CAT_ID":60079,"ELEMENT_SET_NO":999,"REV_AT_EPOCH":11056,"BSTAR":0.000072974,"MEAN_MOTION_DOT":0.00000508,"MEAN_MOTION_DDOT":0},{"OBJECT_NAME":"KINEIS-1C","OBJECT_ID":"2024-114C","EPOCH":"2026-07-08T12:11:56.886720","CLASSIFICATION_TYPE":"U","MEAN_MOTION":14.80661978,"ECCENTRICITY":0.0002512,"INCLINATION":97.9841,"RA_OF_ASC_NODE":213.4457,"ARG_OF_PERICENTER":103.267,"MEAN_ANOMALY":256.8822,"EPHEMERIS_TYPE":0,"NORAD_CAT_ID":60081,"ELEMENT_SET_NO":999,"REV_AT_EPOCH":11053,"BSTAR":0.000073859,"MEAN_MOTION_DOT":0.00000515,"MEAN_MOTION_DDOT":0},{"OBJECT_NAME":"KINEIS-1D","OBJECT_ID":"2024-114D","EPOCH":"2026-07-08T12:41:48.420960","CLASSIFICATION_TYPE":"U","MEAN_MOTION":14.76356672,"ECCENTRICITY":0.0002848,"INCLINATION":97.9882,"RA_OF_ASC_NODE":209.4312,"ARG_OF_PERICENTER":108.4071,"MEAN_ANOMALY":251.7448,"EPHEMERIS_TYPE":0,"NORAD_CAT_ID":60082,"ELEMENT_SET_NO":999,"REV_AT_EPOCH":11027,"BSTAR":0.00006824,"MEAN_MOTION_DOT":0.00000423,"MEAN_MOTION_DDOT":0},{"OBJECT_NAME":"KINEIS-1E","OBJECT_ID":"2024-114E","EPOCH":"2026-07-08T12:37:45.535008","CLASSIFICATION_TYPE":"U","MEAN_MOTION":14.80686146,"ECCENTRICITY":0.0003886,"INCLINATION":97.8942,"RA_OF_ASC_NODE":212.6068,"ARG_OF_PERICENTER":123.4709,"MEAN_ANOMALY":236.6875,"EPHEMERIS_TYPE":0,"NORAD_CAT_ID":60083,"ELEMENT_SET_NO":999,"REV_AT_EPOCH":11054,"BSTAR":0.00010024,"MEAN_MOTION_DOT":0.00000719,"MEAN_MOTION_DDOT":0},{"OBJECT_NAME":"KINEIS-1A","OBJECT_ID":"2024-114F","EPOCH":"2026-07-08T11:48:31.836096","CLASSIFICATION_TYPE":"U","MEAN_MOTION":14.80675189,"ECCENTRICITY":0.0005636,"INCLINATION":97.8916,"RA_OF_ASC_NODE":212.6692,"ARG_OF_PERICENTER":78.3876,"MEAN_ANOMALY":281.7969,"EPHEMERIS_TYPE":0,"NORAD_CAT_ID":60084,"ELEMENT_SET_NO":999,"REV_AT_EPOCH":11054,"BSTAR":0.000081053,"MEAN_MOTION_DOT":0.00000571,"MEAN_MOTION_DDOT":0},{"OBJECT_NAME":"KINEIS-3C","OBJECT_ID":"2024-172A","EPOCH":"2026-07-08T11:31:45.333984","CLASSIFICATION_TYPE":"U","MEAN_MOTION":14.72357558,"ECCENTRICITY":0.0002782,"INCLINATION":98.043,"RA_OF_ASC_NODE":279.1542,"ARG_OF_PERICENTER":93.3001,"MEAN_ANOMALY":266.8525,"EPHEMERIS_TYPE":0,"NORAD_CAT_ID":61220,"ELEMENT_SET_NO":999,"REV_AT_EPOCH":9620,"BSTAR":0.0001903,"MEAN_MOTION_DOT":0.00001155,"MEAN_MOTION_DDOT":0},{"OBJECT_NAME":"KINEIS-3D","OBJECT_ID":"2024-172B","EPOCH":"2026-07-08T04:50:36.415968","CLASSIFICATION_TYPE":"U","MEAN_MOTION":14.72358534,"ECCENTRICITY":0.000262,"INCLINATION":98.0426,"RA_OF_ASC_NODE":278.8886,"ARG_OF_PERICENTER":92.8272,"MEAN_ANOMALY":267.3235,"EPHEMERIS_TYPE":0,"NORAD_CAT_ID":61221,"ELEMENT_SET_NO":999,"REV_AT_EPOCH":9644,"BSTAR":0.00018667,"MEAN_MOTION_DOT":0.00001132,"MEAN_MOTION_DDOT":0},{"OBJECT_NAME":"KINEIS-3E","OBJECT_ID":"2024-172C","EPOCH":"2026-07-08T12:35:27.128256","CLASSIFICATION_TYPE":"U","MEAN_MOTION":14.72325617,"ECCENTRICITY":0.0001864,"INCLINATION":98.0428,"RA_OF_ASC_NODE":279.1895,"ARG_OF_PERICENTER":92.8254,"MEAN_ANOMALY":267.3166,"EPHEMERIS_TYPE":0,"NORAD_CAT_ID":61222,"ELEMENT_SET_NO":999,"REV_AT_EPOCH":9649,"BSTAR":0.00023689,"MEAN_MOTION_DOT":0.00001448,"MEAN_MOTION_DDOT":0},{"OBJECT_NAME":"KINEIS-3A","OBJECT_ID":"2024-172D","EPOCH":"2026-07-08T12:11:36.483360","CLASSIFICATION_TYPE":"U","MEAN_MOTION":14.72295413,"ECCENTRICITY":0.0002628,"INCLINATION":98.0424,"RA_OF_ASC_NODE":279.2715,"ARG_OF_PERICENTER":55.4863,"MEAN_ANOMALY":304.6592,"EPHEMERIS_TYPE":0,"NORAD_CAT_ID":61223,"ELEMENT_SET_NO":999,"REV_AT_EPOCH":9591,"BSTAR":0.00023776,"MEAN_MOTION_DOT":0.00001453,"MEAN_MOTION_DDOT":0},{"OBJECT_NAME":"KINEIS-3B","OBJECT_ID":"2024-172E","EPOCH":"2026-07-08T11:46:29.974080","CLASSIFICATION_TYPE":"U","MEAN_MOTION":14.72281513,"ECCENTRICITY":0.0002125,"INCLINATION":98.0418,"RA_OF_ASC_NODE":279.2773,"ARG_OF_PERICENTER":43.1636,"MEAN_ANOMALY":316.9737,"EPHEMERIS_TYPE":0,"NORAD_CAT_ID":61224,"ELEMENT_SET_NO":999,"REV_AT_EPOCH":9648,"BSTAR":0.0002293,"MEAN_MOTION_DOT":0.00001399,"MEAN_MOTION_DDOT":0},{"OBJECT_NAME":"KINEIS-5C","OBJECT_ID":"2024-219A","EPOCH":"2026-07-08T11:13:47.752320","CLASSIFICATION_TYPE":"U","MEAN_MOTION":14.72308791,"ECCENTRICITY":0.0003602,"INCLINATION":97.906,"RA_OF_ASC_NODE":347.7311,"ARG_OF_PERICENTER":194.477,"MEAN_ANOMALY":165.6335,"EPHEMERIS_TYPE":0,"NORAD_CAT_ID":62081,"ELEMENT_SET_NO":999,"REV_AT_EPOCH":8688,"BSTAR":0.000081254,"MEAN_MOTION_DOT":0.00000465,"MEAN_MOTION_DDOT":0},{"OBJECT_NAME":"KINEIS-5D","OBJECT_ID":"2024-219B","EPOCH":"2026-07-08T11:53:08.704032","CLASSIFICATION_TYPE":"U","MEAN_MOTION":14.72485182,"ECCENTRICITY":0.0004728,"INCLINATION":97.9172,"RA_OF_ASC_NODE":347.8146,"ARG_OF_PERICENTER":188.0824,"MEAN_ANOMALY":172.0309,"EPHEMERIS_TYPE":0,"NORAD_CAT_ID":62082,"ELEMENT_SET_NO":999,"REV_AT_EPOCH":8689,"BSTAR":0.00010848,"MEAN_MOTION_DOT":0.0000064,"MEAN_MOTION_DDOT":0},{"OBJECT_NAME":"KINEIS-5E","OBJECT_ID":"2024-219C","EPOCH":"2026-07-08T12:17:32.764128","CLASSIFICATION_TYPE":"U","MEAN_MOTION":14.72293773,"ECCENTRICITY":0.0006221,"INCLINATION":97.9017,"RA_OF_ASC_NODE":347.8722,"ARG_OF_PERICENTER":185.0964,"MEAN_ANOMALY":175.0181,"EPHEMERIS_TYPE":0,"NORAD_CAT_ID":62083,"ELEMENT_SET_NO":999,"REV_AT_EPOCH":8690,"BSTAR":0.000076444,"MEAN_MOTION_DOT":0.00000435,"MEAN_MOTION_DDOT":0},{"OBJECT_NAME":"KINEIS-5A","OBJECT_ID":"2024-219D","EPOCH":"2026-07-08T00:20:43.748736","CLASSIFICATION_TYPE":"U","MEAN_MOTION":14.72255877,"ECCENTRICITY":0.0003241,"INCLINATION":97.8958,"RA_OF_ASC_NODE":347.6737,"ARG_OF_PERICENTER":227.0269,"MEAN_ANOMALY":133.0667,"EPHEMERIS_TYPE":0,"NORAD_CAT_ID":62084,"ELEMENT_SET_NO":999,"REV_AT_EPOCH":8683,"BSTAR":0.00015252,"MEAN_MOTION_DOT":0.00000915,"MEAN_MOTION_DDOT":0},{"OBJECT_NAME":"KINEIS-5B","OBJECT_ID":"2024-219E","EPOCH":"2026-07-08T12:04:53.835168","CLASSIFICATION_TYPE":"U","MEAN_MOTION":14.78375778,"ECCENTRICITY":0.0002021,"INCLINATION":98.0083,"RA_OF_ASC_NODE":353.2162,"ARG_OF_PERICENTER":159.2704,"MEAN_ANOMALY":200.8589,"EPHEMERIS_TYPE":0,"NORAD_CAT_ID":62085,"ELEMENT_SET_NO":999,"REV_AT_EPOCH":8715,"BSTAR":0.0001084,"MEAN_MOTION_DOT":0.00000737,"MEAN_MOTION_DDOT":0},{"OBJECT_NAME":"KINEIS-2C","OBJECT_ID":"2025-028B","EPOCH":"2026-07-08T02:26:32.146080","CLASSIFICATION_TYPE":"U","MEAN_MOTION":14.73414784,"ECCENTRICITY":0.000366,"INCLINATION":98.1233,"RA_OF_ASC_NODE":243.5178,"ARG_OF_PERICENTER":178.9699,"MEAN_ANOMALY":181.1516,"EPHEMERIS_TYPE":0,"NORAD_CAT_ID":62929,"ELEMENT_SET_NO":999,"REV_AT_EPOCH":7569,"BSTAR":0.00018378,"MEAN_MOTION_DOT":0.00001141,"MEAN_MOTION_DDOT":0}]}
